NORAD_CAT_ID,OBJECT_NAME,OBJECT_TYPE,EPOCH,MEAN_MOTION,ECCENTRICITY,INCLINATION,RA_OF_ASC_NODE,ARG_OF_PERICENTER,MEAN_ANOMALY,BSTAR,MEAN_MOTION_DOT,MEAN_MOTION_DDOT,TLE_LINE0,TLE_LINE1,TLE_LINE2,SEMIMAJOR_AXIS,PERIOD,APOGEE,PERIGEE,DECAYED
52998.0,STARLINK-4254,PAYLOAD,2022-07-23 22:00:00,15.73205095,0.000177,53.2185,298.5733,30.4854,37.2627,-0.00028637,-0.00040628,0.0,0 STARLINK-4254,1 52998U 22076N   22204.91667824 -.00040628  00000-0 -28637-3 0  9994,2 52998  53.2185 298.5733 0001770  30.4854  37.2627 15.73205095  1303,6727.880999999999,91.533,350.936,348.555,0.0
52998.0,STARLINK-4254,PAYLOAD,2022-07-24 14:00:01,15.73227087,0.0001927,53.2189,295.2757,31.3467,214.2227,-0.00022558,-0.00032197,0.0,0 STARLINK-4254,1 52998U 22076N   22205.58334491 -.00032197  00000-0 -22558-3 0  9997,2 52998  53.2189 295.2757 0001927  31.3467 214.2227 15.73227087  1309,6727.818,91.532,350.97900000000016,348.386,0.0
52998.0,STARLINK-4254,PAYLOAD,2022-07-24 22:00:00,15.73199112,0.0001971,53.2191,293.6253,34.7892,299.7293,-7.9081e-05,-0.00011704,0.0,0 STARLINK-4254,1 52998U 22076N   22205.91667824 -.00011704  00000-0 -79081-4 0  9998,2 52998  53.2191 293.6253 0001971  34.7892 299.7293 15.73199112  1301,6727.898,91.533,351.089,348.43699999999984,0.0
52998.0,STARLINK-4254,PAYLOAD,2022-07-25 14:00:01,15.73225172,0.0002173,53.2191,290.3276,34.0948,118.2569,-0.00027377,-0.00038911,0.0,0 STARLINK-4254,1 52998U 22076N   22206.58334491 -.00038911  00000-0 -27377-3 0  9992,2 52998  53.2191 290.3276 0002173  34.0948 118.2569 15.73225172  3332,6727.823,91.532,351.15,348.226,0.0
52998.0,STARLINK-4254,PAYLOAD,2022-07-25 22:00:00,15.732034400000002,0.0001973,53.2186,288.6771,31.0198,210.282,-0.00016691,-0.00023984,0.0,0 STARLINK-4254,1 52998U 22076N   22206.91667824 -.00023984  00000-0 -16691-3 0  9999,2 52998  53.2186 288.6771 0001973  31.0198 210.2820 15.73203440  1309,6727.885,91.533,351.07800000000015,348.423,0.0
52998.0,STARLINK-4254,PAYLOAD,2022-07-26 06:00:00,15.73197932,0.0001853,53.2189,287.0271,34.6343,295.5777,0.00024966,0.0003456,0.0,0 STARLINK-4254,1 52998U 22076N   22207.25001157  .00034560  00000-0  24966-3 0  9992,2 52998  53.2189 287.0271 0001853  34.6343 295.5777 15.73197932  3440,6727.901,91.533,351.01300000000015,348.519,0.0
52998.0,STARLINK-4254,PAYLOAD,2022-07-26 14:00:01,15.7320401,0.0002091,53.2189,285.3799,29.7474,29.4075,0.00033454,0.00046601,0.0,0 STARLINK-4254,1 52998U 22076N   22207.58334491  .00046601  00000-0  33454-3 0  9999,2 52998  53.2189 285.3799 0002091  29.7474  29.4075 15.73204010  1305,6727.884,91.533,351.156,348.342,0.0
52998.0,STARLINK-4254,PAYLOAD,2022-07-26 22:00:00,15.73270143,0.0001981,53.2191,283.7290000000001,26.2015,121.9122,-0.00073486,-0.00102819,0.0,0 STARLINK-4254,1 52998U 22076N   22207.91667824 -.00102819  00000-0 -73486-3 0  9990,2 52998  53.2191 283.7290 0001981  26.2015 121.9122 15.73270143  1307,6727.695,91.529,350.89300000000014,348.227,0.0
52998.0,STARLINK-4254,PAYLOAD,2022-07-27 06:00:02,15.7314721,0.0002072,53.2177,282.0717,35.4627,201.7038,0.00064091,0.00090096,0.0,0 STARLINK-4254,1 52998U 22076N   22208.25002315  .00090096  00000-0  64091-3 0  9999,2 52998  53.2177 282.0717 0002072  35.4627 201.7038 15.73147210  3606,6728.045999999999,91.536,351.305,348.517,0.0
52998.0,STARLINK-4254,PAYLOAD,2022-07-27 14:00:01,15.73220235,0.000217,53.2189,280.4316,24.231,301.8437,0.0001317,0.00017918,0.0,0 STARLINK-4254,1 52998U 22076N   22208.58334491  .00017918  00000-0  13170-3 0  9992,2 52998  53.2189 280.4316 0002170  24.2310 301.8437 15.73220235  1309,6727.837,91.532,351.162,348.24300000000005,0.0
52998.0,STARLINK-4254,PAYLOAD,2022-07-27 16:00:00,15.73229158,0.0002181,53.2186,280.0193,22.5443,55.7688,-1.2291e-05,-2.349e-05,0.0,0 STARLINK-4254,1 52998U 22076N   22208.66667824 -.00002349  00000-0 -12291-4 0  9998,2 52998  53.2186 280.0193 0002181  22.5443  55.7688 15.73229158  3662,6727.812,91.531,351.144,348.21,0.0
52998.0,STARLINK-4254,PAYLOAD,2022-07-27 22:00:00,15.73219338,0.0001918,53.2185,278.7807,21.0913,33.9517,-0.0002831,-0.00040198,0.0,0 STARLINK-4254,1 52998U 22076N   22208.91667824 -.00040198  00000-0 -28310-3 0  9998,2 52998  53.2185 278.7807 0001918  21.0913  33.9517 15.73219338  1307,6727.84,91.532,350.995,348.415,0.0
52998.0,STARLINK-4254,PAYLOAD,2022-07-28 14:00:01,15.73218523,0.0002225,53.2185,275.4838,22.895,210.0332,-0.00028252,-0.00040118,0.0,0 STARLINK-4254,1 52998U 22076N   22209.58334491 -.00040118  00000-0 -28252-3 0  9990,2 52998  53.2185 275.4838 0002225  22.8950 210.0332 15.73218523  1305,6727.842,91.532,351.204,348.21,0.0
52998.0,STARLINK-4254,PAYLOAD,2022-07-28 22:00:00,15.73190079,0.0002129,53.2186,273.8325,27.0277,294.8453,0.00010933,0.00014744,0.0,0 STARLINK-4254,1 52998U 22076N   22209.91667824  .00014744  00000-0  10933-3 0  9997,2 52998  53.2186 273.8325 0002129  27.0277 294.8453 15.73190079  1300,6727.9230000000025,91.534,351.221,348.356,0.0
52998.0,STARLINK-4254,PAYLOAD,2022-07-29 00:00:00,15.73169942,0.0002065999999999,53.2186,273.4198,26.9528,47.157,0.00048082,0.00067318,0.0,0 STARLINK-4254,1 52998U 22076N   22210.00001157  .00067318  00000-0  48082-3 0  9991,2 52998  53.2186 273.4198 0002066  26.9528  47.1570 15.73169942  3879,6727.981,91.535,351.236,348.456,0.0
52998.0,STARLINK-4254,PAYLOAD,2022-07-29 14:00:01,15.73143832,0.0002329,53.2184,270.5354,21.3858,118.3536,0.00034518,0.00047987,0.0,0 STARLINK-4254,1 52998U 22076N   22210.58334491  .00047987  00000-0  34518-3 0  9993,2 52998  53.2184 270.5354 0002329  21.3858 118.3536 15.73143832  3969,6728.055,91.536,351.487,348.353,0.0
52998.0,STARLINK-4254,PAYLOAD,2022-07-29 22:00:00,15.73174648,0.000215,53.218,268.8843,22.9438,205.6817,0.00012076,0.00016342,0.0,0 STARLINK-4254,1 52998U 22076N   22210.91667824  .00016342  00000-0  12076-3 0  9995,2 52998  53.2180 268.8843 0002150  22.9438 205.6817 15.73174648  1308,6727.967,91.535,351.279,348.386,0.0
52998.0,STARLINK-4254,PAYLOAD,2022-07-30 14:00:01,15.73183667,0.0002373,53.2179,265.5875,22.6801,23.7833,0.00050185,0.00070359,0.0,0 STARLINK-4254,1 52998U 22076N   22211.58334491  .00070359  00000-0  50185-3 0  9991,2 52998  53.2179 265.5875 0002373  22.6801  23.7833 15.73183667  4124,6727.941999999999,91.534,351.403,348.21,0.0
52998.0,STARLINK-4254,PAYLOAD,2022-07-30 22:00:00,15.73233165,0.0002184,53.2182,263.9361,22.2682,113.1344,-0.00010959,-0.00015996,0.0,0 STARLINK-4254,1 52998U 22076N   22211.91667824 -.00015996  00000-0 -10959-3 0  9990,2 52998  53.2182 263.9361 0002184  22.2682 113.1344 15.73233165  1300,6727.801,91.531,351.135,348.196,0.0
52998.0,STARLINK-4254,PAYLOAD,2022-07-31 06:00:02,15.73218206,0.0002213,53.2183,262.2867,22.3309,202.0996,-0.00025552,-0.00036359,0.0,0 STARLINK-4254,1 52998U 22076N   22212.25002315 -.00036359  00000-0 -25552-3 0  9997,2 52998  53.2183 262.2867 0002213  22.3309 202.0996 15.73218206  4239,6727.843000000003,91.532,351.19699999999995,348.219,0.0
52998.0,STARLINK-4254,PAYLOAD,2022-07-31 14:00:01,15.731733300000002,0.0002483,53.2179,260.6389,19.1961,294.1079,0.00046607,0.00065229,0.0,0 STARLINK-4254,1 52998U 22076N   22212.58334491  .00065229  00000-0  46607-3 0  9996,2 52998  53.2179 260.6389 0002483  19.1961 294.1079 15.73173330  1309,6727.971,91.535,351.50699999999995,348.166,0.0
52998.0,STARLINK-4254,PAYLOAD,2022-07-31 22:00:00,15.73220078,0.0002266999999999,53.2178,258.9874,22.4742,19.7605,-8.7888e-05,-0.00012949,0.0,0 STARLINK-4254,1 52998U 22076N   22212.91667824 -.00012949  00000-0 -87888-4 0  9992,2 52998  53.2178 258.9874 0002267  22.4742  19.7605 15.73220078  4335,6727.8380000000025,91.532,351.228,348.17800000000005,0.0
52998.0,STARLINK-4254,PAYLOAD,2022-08-01 14:00:01,15.73165378,0.0002601,53.2177,255.6905,25.4223,194.6857,0.00053427,0.00074928,0.0,0 STARLINK-4254,1 52998U 22076N   22213.58334491  .00074928  00000-0  53427-3 0  9991,2 52998  53.2177 255.6905 0002601  25.4223 194.6857 15.73165378  1309,6727.994000000002,91.535,351.6090000000001,348.1090000000001,0.0
52998.0,STARLINK-4254,PAYLOAD,2022-08-01 22:00:00,15.73186633,0.0002428,53.2181,254.0389,28.4551,280.5735,0.0003486,0.00048562,0.0,0 STARLINK-4254,1 52998U 22076N   22213.91667824  .00048562  00000-0  34860-3 0  9992,2 52998  53.2181 254.0389 0002428  28.4551 280.5735 15.73186633  1304,6727.933000000001,91.534,351.432,348.165,0.0
52998.0,STARLINK-4254,PAYLOAD,2022-08-02 06:00:02,15.73266488,0.0002514,53.2184,252.39,28.005,10.0119,-0.00065152,-0.00091347,0.0,0 STARLINK-4254,1 52998U 22076N   22214.25002315 -.00091347  00000-0 -65152-3 0  9997,2 52998  53.2184 252.3900 0002514  28.0050  10.0119 15.73266488  4541,6727.706,91.529,351.26199999999994,347.879,0.0
52998.0,STARLINK-4254,PAYLOAD,2022-08-02 14:00:01,15.73165443,0.000264,53.2181,250.7417,23.1539,103.78,0.00030585,0.00042461,0.0,0 STARLINK-4254,1 52998U 22076N   22214.58334491  .00042461  00000-0  30585-3 0  9999,2 52998  53.2181 250.7417 0002640  23.1539 103.7800 15.73165443  1308,6727.994000000002,91.535,351.635,348.083,0.0
52998.0,STARLINK-4254,PAYLOAD,2022-08-03 14:00:01,15.73240228,0.0002652,53.218,245.7934,21.811,11.909,-0.00027769,-0.00039486,0.0,0 STARLINK-4254,1 52998U 22076N   22215.58334491 -.00039486  00000-0 -27769-3 0  9995,2 52998  53.2180 245.7934 0002652  21.8110  11.9090 15.73240228  4756,6727.78,91.531,351.43,347.861,0.0
52998.0,STARLINK-4254,PAYLOAD,2022-08-03 22:00:01,15.73167541,0.0002355999999999,53.2185,244.1417,21.8406,100.9222,0.00046338,0.00064829,0.0,0 STARLINK-4254,1 52998U 22076N   22215.91668981  .00064829  00000-0  46338-3 0  9996,2 52998  53.2185 244.1417 0002356  21.8406 100.9222 15.73167541  1309,6727.988,91.535,351.43800000000016,348.26800000000014,0.0
52998.0,STARLINK-4254,PAYLOAD,2022-08-04 06:00:00,15.7323348,0.0002495,53.2188,242.4934,22.6572,188.9513,-0.00017999,-0.00025845,0.0,0 STARLINK-4254,1 52998U 22076N   22216.25001157 -.00025845  00000-0 -17999-3 0  9998,2 52998  53.2188 242.4934 0002495  22.6572 188.9513 15.73233480  4863,6727.8,91.531,351.343,347.986,0.0
